[
    {
        "Altitude(m)": 610399.5079892995,
        "Argument of Periapsis(deg)": 0.0,
        "Eccentricity": 0.0,
        "Inclination(deg)": 60.0,
        "Latitude(deg)": 52.11127742713862,
        "Longitude(deg)": -47.41578746088285,
        "Mean Anomaly(deg)": 65.4545,
        "RAAN(deg)": 5.0,
        "Satellite Name": "Test1 26",
        "Satellite Number": 26,
        "Semi-Major Axis(m)": 6980739.136638005,
        "Time(s)": 0
    },
    {
        "Altitude(m)": 610481.6595045296,
        "Argument of Periapsis(deg)": 0.00010418945913296404,
        "Eccentricity": 0.0,
        "Inclination(deg)": 60.0,
        "Latitude(deg)": 52.470880685922594,
        "Longitude(deg)": -46.63365346737494,
        "Mean Anomaly(deg)": 66.07460614546183,
        "RAAN(deg)": 4.999579950860257,
        "Satellite Name": "Test1 26",
        "Satellite Number": 26,
        "Semi-Major Axis(m)": 6980739.136638005,
        "Time(s)": 10
    }
]